[{"OBJECT_NAME":"APRIZESAT 6","OBJECT_ID":"2011-044F","EPOCH":"2026-03-09T16:26:10.012704","MEAN_MOTION":14.76752527,"ECCENTRICITY":0.00442555,"INCLINATION":98.2416,"RA_OF_ASC_NODE":337.1377,"ARG_OF_PERICENTER":45.5193,"MEAN_ANOMALY":11.155,"EPHEMERIS_TYPE":0,"CLASSIFICATION_TYPE":"U","NORAD_CAT_ID":37793,"ELEMENT_SET_NO":999,"REV_AT_EPOCH":78246,"BSTAR":0.0001848407,"MEAN_MOTION_DOT":1.26e-5,"MEAN_MOTION_DDOT":0},{"OBJECT_NAME":"CZ-6A DEB","OBJECT_ID":"2024-140UL","EPOCH":"2026-03-09T12:50:11.350176","MEAN_MOTION":14.59917023,"ECCENTRICITY":0.00757699,"INCLINATION":88.8398,"RA_OF_ASC_NODE":270.9403,"ARG_OF_PERICENTER":238.5444,"MEAN_ANOMALY":120.8347,"EPHEMERIS_TYPE":0,"CLASSIFICATION_TYPE":"U","NORAD_CAT_ID":61323,"ELEMENT_SET_NO":999,"REV_AT_EPOCH":8032,"BSTAR":0.0015198329,"MEAN_MOTION_DOT":7.595e-5,"MEAN_MOTION_DDOT":0}]
